[{"OBJECT_NAME":"ION SCV-008","OBJECT_ID":"2023-001AU","EPOCH":"2026-03-09T19:46:58.662912","MEAN_MOTION":15.2722664,"ECCENTRICITY":0.00151921,"INCLINATION":97.5676,"RA_OF_ASC_NODE":163.606,"ARG_OF_PERICENTER":8.542,"MEAN_ANOMALY":351.6074,"EPHEMERIS_TYPE":0,"CLASSIFICATION_TYPE":"U","NORAD_CAT_ID":55051,"ELEMENT_SET_NO":999,"REV_AT_EPOCH":17616,"BSTAR":0.00031422806,"MEAN_MOTION_DOT":8.336e-5,"MEAN_MOTION_DDOT":0},{"OBJECT_NAME":"STARLINK-35752","OBJECT_ID":"2025-247L","EPOCH":"2026-03-09T15:12:29.618496","MEAN_MOTION":15.30193397,"ECCENTRICITY":0.000129,"INCLINATION":53.1577,"RA_OF_ASC_NODE":191.8054,"ARG_OF_PERICENTER":62.6386,"MEAN_ANOMALY":297.4746,"EPHEMERIS_TYPE":0,"CLASSIFICATION_TYPE":"U","NORAD_CAT_ID":66275,"ELEMENT_SET_NO":999,"REV_AT_EPOCH":2102,"BSTAR":0.0012356,"MEAN_MOTION_DOT":0.00036408,"MEAN_MOTION_DDOT":0}]
